ONEWEB-0458             
1 51648U 22012AC  26046.01696884  .00000584  00000+0  16372-2 0  9998
2 51648  87.8761  60.5923 0001800  84.7168 275.4165 13.10374175193309
ONEWEB-0461             
1 51649U 22012AD  26046.04779579  .00000007  00000+0 -15516-4 0  9997
2 51649  87.9121  30.1077 0002022  86.4366 273.6997 13.17648171197809
ONEWEB-0463             
1 51650U 22012AE  26045.95329556  .00000097  00000+0  21722-3 0  9997
2 51650  87.9110  30.1609 0002034  84.6321 275.5043 13.17648430197579
ONEWEB-0464             
1 51651U 22012AF  26046.01364658  .00000447  00000+0  12432-2 0  9994
2 51651  87.8755  60.6230 0001621  93.7897 266.3416 13.10375335193327
ONEWEB-0468             
1 51652U 22012AG  26046.02029994  .00000660  00000+0  18540-2 0  9990
2 51652  87.8758  60.6154 0001494  93.1891 266.9408 13.10376461193308
ONEWEB-0473             
1 51653U 22012AH  26046.08169571  .00000030  00000+0  49126-4 0  9990
2 51653  87.8753  60.6060 0001774  87.8496 272.2834 13.10375889193319
ONEWEB-0474             
1 51654U 22012AJ  26045.99702855 -.00000399  00000+0 -11804-2 0  9998
2 51654  87.8761  60.5961 0001587  92.9379 267.1930 13.10374510193294
ONEWEB-0475             
1 51655U 22012AK  26045.96510287  .00000025  00000+0  31882-4 0  9996
2 51655  87.9110  30.1498 0001270  76.6016 283.5257 13.17648016197591
ONEWEB-0490             
1 54113U 22138A   26046.22116884  .00000042  00000+0  71993-4 0  9998
2 54113  87.9261 329.2459 0001627  83.1750 276.9568 13.19723745160746
ONEWEB-0492             
1 54114U 22138B   26046.24644597  .00000040  00000+0  68725-4 0  9995
2 54114  87.9255 329.2505 0001762  82.9934 277.1399 13.19724292160757
ONEWEB-0495             
1 54115U 22138C   26046.22433915  .00000053  00000+0  99622-4 0  9998
2 54115  87.9251 329.2567 0001186  95.7092 264.4176 13.19725287160734
ONEWEB-0497             
1 54116U 22138D   26046.23696203  .00000040  00000+0  68362-4 0  9994
2 54116  87.9255 329.2443 0001710  80.4015 279.7311 13.19724093160724
ONEWEB-0499             
1 54117U 22138E   26046.22037183 -.00000183  00000+0 -49034-3 0  9994
2 54117  87.9249 329.2583 0001579  75.6399 284.4909 13.19724966160733
ONEWEB-0500             
1 54118U 22138F   26046.22275478  .00000062  00000+0  12201-3 0  9996
2 54118  87.9256 329.2465 0001835  79.5931 280.5409 13.19724754160749
ONEWEB-0501             
1 54119U 22138G   26046.25276578  .00000036  00000+0  57070-4 0  9997
2 54119  87.9251 329.2423 0001443  84.3042 275.8255 13.19723969160722
ONEWEB-0502             
1 54120U 22138H   26046.23854106  .00000025  00000+0  29167-4 0  9990
2 54120  87.9263 329.2275 0001492  79.8827 280.2474 13.19724005160743
ONEWEB-0503             
1 54121U 22138J   26046.22748612  .00000033  00000+0  51014-4 0  9999
2 54121  87.9263 329.2337 0001776  69.9273 290.2051 13.19723520160735
