[{"OBJECT_NAME":"ONEWEB-0458","OBJECT_ID":"2022-012AC","EPOCH":"2026-02-15T00:24:26.107776","MEAN_MOTION":13.10374175,"ECCENTRICITY":0.00018006,"INCLINATION":87.8761,"RA_OF_ASC_NODE":60.5923,"ARG_OF_PERICENTER":84.7168,"MEAN_ANOMALY":275.4165,"EPHEMERIS_TYPE":0,"CLASSIFICATION_TYPE":"U","NORAD_CAT_ID":51648,"ELEMENT_SET_NO":999,"REV_AT_EPOCH":19330,"BSTAR":0.0016371848,"MEAN_MOTION_DOT":5.84e-6,"MEAN_MOTION_DDOT":0},{"OBJECT_NAME":"ONEWEB-0461","OBJECT_ID":"2022-012AD","EPOCH":"2026-02-15T01:08:49.556256","MEAN_MOTION":13.17648171,"ECCENTRICITY":0.00020226,"INCLINATION":87.9121,"RA_OF_ASC_NODE":30.1077,"ARG_OF_PERICENTER":86.4366,"MEAN_ANOMALY":273.6997,"EPHEMERIS_TYPE":0,"CLASSIFICATION_TYPE":"U","NORAD_CAT_ID":51649,"ELEMENT_SET_NO":999,"REV_AT_EPOCH":19780,"BSTAR":-1.5515623e-5,"MEAN_MOTION_DOT":7.0e-8,"MEAN_MOTION_DDOT":0},{"OBJECT_NAME":"ONEWEB-0463","OBJECT_ID":"2022-012AE","EPOCH":"2026-02-14T22:52:44.736384","MEAN_MOTION":13.1764843,"ECCENTRICITY":0.00020347,"INCLINATION":87.911,"RA_OF_ASC_NODE":30.1609,"ARG_OF_PERICENTER":84.6321,"MEAN_ANOMALY":275.5043,"EPHEMERIS_TYPE":0,"CLASSIFICATION_TYPE":"U","NORAD_CAT_ID":51650,"ELEMENT_SET_NO":999,"REV_AT_EPOCH":19757,"BSTAR":0.00021722167,"MEAN_MOTION_DOT":9.7e-7,"MEAN_MOTION_DDOT":0},{"OBJECT_NAME":"ONEWEB-0464","OBJECT_ID":"2022-012AF","EPOCH":"2026-02-15T00:19:39.064512","MEAN_MOTION":13.10375335,"ECCENTRICITY":0.00016216,"INCLINATION":87.8755,"RA_OF_ASC_NODE":60.623,"ARG_OF_PERICENTER":93.7897,"MEAN_ANOMALY":266.3416,"EPHEMERIS_TYPE":0,"CLASSIFICATION_TYPE":"U","NORAD_CAT_ID":51651,"ELEMENT_SET_NO":999,"REV_AT_EPOCH":19332,"BSTAR":0.0012431828,"MEAN_MOTION_DOT":4.47e-6,"MEAN_MOTION_DDOT":0},{"OBJECT_NAME":"ONEWEB-0468","OBJECT_ID":"2022-012AG","EPOCH":"2026-02-15T00:29:13.914816","MEAN_MOTION":13.10376461,"ECCENTRICITY":0.00014944,"INCLINATION":87.8758,"RA_OF_ASC_NODE":60.6154,"ARG_OF_PERICENTER":93.1891,"MEAN_ANOMALY":266.9408,"EPHEMERIS_TYPE":0,"CLASSIFICATION_TYPE":"U","NORAD_CAT_ID":51652,"ELEMENT_SET_NO":999,"REV_AT_EPOCH":19330,"BSTAR":0.0018540393,"MEAN_MOTION_DOT":6.6e-6,"MEAN_MOTION_DDOT":0},{"OBJECT_NAME":"ONEWEB-0473","OBJECT_ID":"2022-012AH","EPOCH":"2026-02-15T01:57:38.509344","MEAN_MOTION":13.10375889,"ECCENTRICITY":0.00017747,"INCLINATION":87.8753,"RA_OF_ASC_NODE":60.606,"ARG_OF_PERICENTER":87.8496,"MEAN_ANOMALY":272.2834,"EPHEMERIS_TYPE":0,"CLASSIFICATION_TYPE":"U","NORAD_CAT_ID":51653,"ELEMENT_SET_NO":999,"REV_AT_EPOCH":19331,"BSTAR":4.9125943e-5,"MEAN_MOTION_DOT":3.0e-7,"MEAN_MOTION_DDOT":0},{"OBJECT_NAME":"ONEWEB-0474","OBJECT_ID":"2022-012AJ","EPOCH":"2026-02-14T23:55:43.266720","MEAN_MOTION":13.1037451,"ECCENTRICITY":0.00015877,"INCLINATION":87.8761,"RA_OF_ASC_NODE":60.5961,"ARG_OF_PERICENTER":92.9379,"MEAN_ANOMALY":267.193,"EPHEMERIS_TYPE":0,"CLASSIFICATION_TYPE":"U","NORAD_CAT_ID":51654,"ELEMENT_SET_NO":999,"REV_AT_EPOCH":19329,"BSTAR":-0.0011804334,"MEAN_MOTION_DOT":-3.99e-6,"MEAN_MOTION_DDOT":0},{"OBJECT_NAME":"ONEWEB-0475","OBJECT_ID":"2022-012AK","EPOCH":"2026-02-14T23:09:44.887968","MEAN_MOTION":13.17648016,"ECCENTRICITY":0.00012708,"INCLINATION":87.911,"RA_OF_ASC_NODE":30.1498,"ARG_OF_PERICENTER":76.6016,"MEAN_ANOMALY":283.5257,"EPHEMERIS_TYPE":0,"CLASSIFICATION_TYPE":"U","NORAD_CAT_ID":51655,"ELEMENT_SET_NO":999,"REV_AT_EPOCH":19759,"BSTAR":3.1882065e-5,"MEAN_MOTION_DOT":2.5e-7,"MEAN_MOTION_DDOT":0},{"OBJECT_NAME":"ONEWEB-0490","OBJECT_ID":"2022-138A","EPOCH":"2026-02-15T05:18:28.987776","MEAN_MOTION":13.19723745,"ECCENTRICITY":0.00016279,"INCLINATION":87.9261,"RA_OF_ASC_NODE":329.2459,"ARG_OF_PERICENTER":83.175,"MEAN_ANOMALY":276.9568,"EPHEMERIS_TYPE":0,"CLASSIFICATION_TYPE":"U","NORAD_CAT_ID":54113,"ELEMENT_SET_NO":999,"REV_AT_EPOCH":16074,"BSTAR":7.1992627e-5,"MEAN_MOTION_DOT":4.2e-7,"MEAN_MOTION_DDOT":0},{"OBJECT_NAME":"ONEWEB-0492","OBJECT_ID":"2022-138B","EPOCH":"2026-02-15T05:54:52.931808","MEAN_MOTION":13.19724292,"ECCENTRICITY":0.00017623,"INCLINATION":87.9255,"RA_OF_ASC_NODE":329.2505,"ARG_OF_PERICENTER":82.9934,"MEAN_ANOMALY":277.1399,"EPHEMERIS_TYPE":0,"CLASSIFICATION_TYPE":"U","NORAD_CAT_ID":54114,"ELEMENT_SET_NO":999,"REV_AT_EPOCH":16075,"BSTAR":6.8725227e-5,"MEAN_MOTION_DOT":4.0e-7,"MEAN_MOTION_DDOT":0},{"OBJECT_NAME":"ONEWEB-0495","OBJECT_ID":"2022-138C","EPOCH":"2026-02-15T05:23:02.902560","MEAN_MOTION":13.19725287,"ECCENTRICITY":0.00011863,"INCLINATION":87.9251,"RA_OF_ASC_NODE":329.2567,"ARG_OF_PERICENTER":95.7092,"MEAN_ANOMALY":264.4176,"EPHEMERIS_TYPE":0,"CLASSIFICATION_TYPE":"U","NORAD_CAT_ID":54115,"ELEMENT_SET_NO":999,"REV_AT_EPOCH":16073,"BSTAR":9.9621713e-5,"MEAN_MOTION_DOT":5.3e-7,"MEAN_MOTION_DDOT":0},{"OBJECT_NAME":"ONEWEB-0497","OBJECT_ID":"2022-138D","EPOCH":"2026-02-15T05:41:13.519392","MEAN_MOTION":13.19724093,"ECCENTRICITY":0.00017104,"INCLINATION":87.9255,"RA_OF_ASC_NODE":329.2443,"ARG_OF_PERICENTER":80.4015,"MEAN_ANOMALY":279.7311,"EPHEMERIS_TYPE":0,"CLASSIFICATION_TYPE":"U","NORAD_CAT_ID":54116,"ELEMENT_SET_NO":999,"REV_AT_EPOCH":16072,"BSTAR":6.8361874e-5,"MEAN_MOTION_DOT":4.0e-7,"MEAN_MOTION_DDOT":0},{"OBJECT_NAME":"ONEWEB-0499","OBJECT_ID":"2022-138E","EPOCH":"2026-02-15T05:17:20.126112","MEAN_MOTION":13.19724966,"ECCENTRICITY":0.00015792,"INCLINATION":87.9249,"RA_OF_ASC_NODE":329.2583,"ARG_OF_PERICENTER":75.6399,"MEAN_ANOMALY":284.4909,"EPHEMERIS_TYPE":0,"CLASSIFICATION_TYPE":"U","NORAD_CAT_ID":54117,"ELEMENT_SET_NO":999,"REV_AT_EPOCH":16073,"BSTAR":-0.00049034217,"MEAN_MOTION_DOT":-1.83e-6,"MEAN_MOTION_DDOT":0},{"OBJECT_NAME":"ONEWEB-0500","OBJECT_ID":"2022-138F","EPOCH":"2026-02-15T05:20:46.012992","MEAN_MOTION":13.19724754,"ECCENTRICITY":0.00018358,"INCLINATION":87.9256,"RA_OF_ASC_NODE":329.2465,"ARG_OF_PERICENTER":79.5931,"MEAN_ANOMALY":280.5409,"EPHEMERIS_TYPE":0,"CLASSIFICATION_TYPE":"U","NORAD_CAT_ID":54118,"ELEMENT_SET_NO":999,"REV_AT_EPOCH":16074,"BSTAR":0.00012200721,"MEAN_MOTION_DOT":6.2e-7,"MEAN_MOTION_DDOT":0},{"OBJECT_NAME":"ONEWEB-0501","OBJECT_ID":"2022-138G","EPOCH":"2026-02-15T06:03:58.963392","MEAN_MOTION":13.19723969,"ECCENTRICITY":0.00014435,"INCLINATION":87.9251,"RA_OF_ASC_NODE":329.2423,"ARG_OF_PERICENTER":84.3042,"MEAN_ANOMALY":275.8255,"EPHEMERIS_TYPE":0,"CLASSIFICATION_TYPE":"U","NORAD_CAT_ID":54119,"ELEMENT_SET_NO":999,"REV_AT_EPOCH":16072,"BSTAR":5.7069872e-5,"MEAN_MOTION_DOT":3.6e-7,"MEAN_MOTION_DDOT":0},{"OBJECT_NAME":"ONEWEB-0502","OBJECT_ID":"2022-138H","EPOCH":"2026-02-15T05:43:29.947584","MEAN_MOTION":13.19724005,"ECCENTRICITY":0.0001492,"INCLINATION":87.9263,"RA_OF_ASC_NODE":329.2275,"ARG_OF_PERICENTER":79.8827,"MEAN_ANOMALY":280.2474,"EPHEMERIS_TYPE":0,"CLASSIFICATION_TYPE":"U","NORAD_CAT_ID":54120,"ELEMENT_SET_NO":999,"REV_AT_EPOCH":16074,"BSTAR":2.9167211e-5,"MEAN_MOTION_DOT":2.5e-7,"MEAN_MOTION_DDOT":0},{"OBJECT_NAME":"ONEWEB-0503","OBJECT_ID":"2022-138J","EPOCH":"2026-02-15T05:27:34.800768","MEAN_MOTION":13.1972352,"ECCENTRICITY":0.00017767,"INCLINATION":87.9263,"RA_OF_ASC_NODE":329.2337,"ARG_OF_PERICENTER":69.9273,"MEAN_ANOMALY":290.2051,"EPHEMERIS_TYPE":0,"CLASSIFICATION_TYPE":"U","NORAD_CAT_ID":54121,"ELEMENT_SET_NO":999,"REV_AT_EPOCH":16073,"BSTAR":5.1014224e-5,"MEAN_MOTION_DOT":3.3e-7,"MEAN_MOTION_DDOT":0}]
